NORAD_CAT_ID,OBJECT_NAME,OBJECT_TYPE,EPOCH,MEAN_MOTION,ECCENTRICITY,INCLINATION,RA_OF_ASC_NODE,ARG_OF_PERICENTER,MEAN_ANOMALY,BSTAR,MEAN_MOTION_DOT,MEAN_MOTION_DDOT,TLE_LINE0,TLE_LINE1,TLE_LINE2,SEMIMAJOR_AXIS,PERIOD,APOGEE,PERIGEE,DECAYED
52842.0,STARLINK-4046,PAYLOAD,2022-07-03 22:00:00,15.7326941,0.0001675,53.2153,323.7595,49.2675,205.738,-0.00048861,-0.00068841,0.0,0 STARLINK-4046,1 52842U 22062N   22184.91667824 -.00068841  00000-0 -48861-3 0  9992,2 52842  53.2153 323.7595 0001675  49.2675 205.7380 15.73269410  3082,6727.696999999999,91.529,350.689,348.435,0.0
52842.0,STARLINK-4046,PAYLOAD,2022-07-04 14:00:01,15.73194897,0.0001825,53.2157,320.4599,53.3129,19.6078,-0.00028855,-0.00040914,0.0,0 STARLINK-4046,1 52842U 22062N   22185.58334491 -.00040914  00000-0 -28855-3 0  9999,2 52842  53.2157 320.4599 0001825  53.3129  19.6078 15.73194897  1306,6727.91,91.533,351.00300000000016,348.547,0.0
52842.0,STARLINK-4046,PAYLOAD,2022-07-04 22:00:00,15.73199658,0.0001936,53.215,318.8108,49.9646,111.8793,0.00029055,0.00040353,0.0,0 STARLINK-4046,1 52842U 22062N   22185.91667824  .00040353  00000-0  29055-3 0  9993,2 52842  53.2150 318.8108 0001936  49.9646 111.8793 15.73199658  1303,6727.896,91.533,351.064,348.459,0.0
52842.0,STARLINK-4046,PAYLOAD,2022-07-05 14:00:01,15.73303891,0.0001698,53.2152,315.5114,47.8445,291.9011,-0.00092456,-0.00128985,0.0,0 STARLINK-4046,1 52842U 22062N   22186.58334491 -.00128985  00000-0 -92456-3 0  9993,2 52842  53.2152 315.5114 0001698  47.8445 291.9011 15.73303891  1304,6727.599,91.527,350.606,348.32199999999995,0.0
52842.0,STARLINK-4046,PAYLOAD,2022-07-05 22:00:00,15.73205836,0.0001641,53.2155,313.8618,38.1283,30.6181,-0.0001864,-0.00026705,0.0,0 STARLINK-4046,1 52842U 22062N   22186.91667824 -.00026705  00000-0 -18640-3 0  9999,2 52842  53.2155 313.8618 0001641  38.1283  30.6181 15.73205836  3395,6727.879,91.533,350.848,348.639,0.0
52842.0,STARLINK-4046,PAYLOAD,2022-07-06 06:00:00,15.73151839,0.0001435,53.2153,312.2106,41.35,116.2799,0.00054774,0.00076798,0.0,0 STARLINK-4046,1 52842U 22062N   22187.25001157  .00076798  00000-0  54774-3 0  9991,2 52842  53.2153 312.2106 0001435  41.3500 116.2799 15.73151839  3442,6728.031999999997,91.536,350.86300000000006,348.932,0.0
52842.0,STARLINK-4046,PAYLOAD,2022-07-06 14:00:01,15.73226413,0.0001629,53.2155,310.5628,36.3086,210.221,-0.00032604,-0.00046181,0.0,0 STARLINK-4046,1 52842U 22062N   22187.58334491 -.00046181  00000-0 -32604-3 0  9990,2 52842  53.2155 310.5628 0001629  36.3086 210.2210 15.73226413  1309,6727.82,91.532,350.781,348.589,0.0
52842.0,STARLINK-4046,PAYLOAD,2022-07-06 22:00:00,15.73237869,0.0001748,53.2159,308.9134,33.2832,302.181,-0.0012082,-0.0016714,0.0,0 STARLINK-4046,1 52842U 22062N   22187.91667824 -.00167140  00000-0 -12082-2 0  9992,2 52842  53.2159 308.9134 0001748  33.2832 302.1810 15.73237869  3556,6727.7869999999975,91.531,350.82800000000015,348.476,0.0
52842.0,STARLINK-4046,PAYLOAD,2022-07-07 04:12:12,15.73195467,0.0001614,53.2155,307.6334,32.3083,327.8036,4.7692e-05,6.076e-05,0.0,0 STARLINK-4046,1 52842U 22062N   22188.17514387  .00006076  00000-0  47692-4 0  9991,2 52842  53.2155 307.6334 0001614  32.3083 327.8036 15.73195467  3595,6727.908,91.533,350.8590000000001,348.68699999999984,0.0
52842.0,STARLINK-4046,PAYLOAD,2022-07-07 13:21:05,15.73211454,0.0001688,53.2153,305.747,31.8985,328.2137,0.00017661,0.0002425,0.0,0 STARLINK-4046,1 52842U 22062N   22188.55631302  .00024250  00000-0  17661-3 0  9996,2 52842  53.2153 305.7470 0001688  31.8985 328.2137 15.73211454  3164,6727.863,91.533,350.86300000000006,348.592,0.0
52842.0,STARLINK-4046,PAYLOAD,2022-07-07 20:58:29,15.73209457,0.0003619,53.2153,304.1749,24.9211,335.1984,0.0002065,0.00028476,0.0,0 STARLINK-4046,1 52842U 22062N   22188.87395824  .00028476  00000-0  20650-3 0  9993,2 52842  53.2153 304.1749 0003619  24.9211 335.1984 15.73209457  3210,6727.868,91.533,352.168,347.298,0.0
52842.0,STARLINK-4046,PAYLOAD,2022-07-08 06:00:02,15.73202215,0.0001703,53.2153,302.3127,36.6321,294.672,0.00071204,0.00100525,0.0,0 STARLINK-4046,1 52842U 22062N   22189.25002315  .00100525  00000-0  71204-3 0  9993,2 52842  53.2153 302.3127 0001703  36.6321 294.6720 15.73202215  3766,6727.889,91.533,350.9,348.608,0.0
52842.0,STARLINK-4046,PAYLOAD,2022-07-08 14:00:01,15.73300009,0.0001924,53.2153,300.6651,31.2026,29.0041,-0.00051901,-0.00073147,0.0,0 STARLINK-4046,1 52842U 22062N   22189.58334491 -.00073147  00000-0 -51901-3 0  9995,2 52842  53.2153 300.6651 0001924  31.2026  29.0041 15.73300009  3819,6727.61,91.527,350.769,348.181,0.0
52842.0,STARLINK-4046,PAYLOAD,2022-07-08 22:00:01,15.73314861,0.0001922,53.215,299.0147,27.8305,121.5127,-0.00072569,-0.00101751,0.0,0 STARLINK-4046,1 52842U 22062N   22189.91668981 -.00101751  00000-0 -72569-3 0  9992,2 52842  53.2150 299.0147 0001922  27.8305 121.5127 15.73314861  3865,6727.568,91.526,350.726,348.14,0.0
52842.0,STARLINK-4046,PAYLOAD,2022-07-09 06:00:00,15.73229881,0.0001730999999999,53.2151,297.3635,33.1155,205.1588,-0.0010267999999999,-0.00142501,0.0,0 STARLINK-4046,1 52842U 22062N   22190.25001157 -.00142501  00000-0 -10268-2 0  9992,2 52842  53.2151 297.3635 0001731  33.1155 205.1588 15.73229881  3924,6727.81,91.531,350.84,348.51,0.0
52842.0,STARLINK-4046,PAYLOAD,2022-07-09 14:00:01,15.73107873,0.0001953,53.2152,295.7161,28.7713,298.4165,-0.00094422,-0.00130596,0.0,0 STARLINK-4046,1 52842U 22062N   22190.58334491 -.00130596  00000-0 -94422-3 0  9994,2 52842  53.2152 295.7161 0001953  28.7713 298.4165 15.73107873  1309,6728.158,91.539,351.337,348.709,0.0
52842.0,STARLINK-4046,PAYLOAD,2022-07-09 20:00:01,15.73007169,0.0001986,53.215,294.4791,23.2781,280.4935,0.0003485,0.0004817,0.0,0 STARLINK-4046,1 52842U 22062N   22190.83334491  .00048170  00000-0  34850-3 0  9995,2 52842  53.2150 294.4791 0001986  23.2781 280.4935 15.73007169  1306,6728.445,91.544,351.646,348.974,0.0
52842.0,STARLINK-4046,PAYLOAD,2022-07-10 06:00:00,15.730577300000002,0.0001779,53.2158,292.4155,25.3157,119.3438,0.00091157,0.00128503,0.0,0 STARLINK-4046,1 52842U 22062N   22191.25001157  .00128503  00000-0  91157-3 0  9994,2 52842  53.2158 292.4155 0001779  25.3157 119.3438 15.73057730  4070,6728.301,91.541,351.36300000000006,348.969,0.0
52842.0,STARLINK-4046,PAYLOAD,2022-07-10 14:00:01,15.7316191,0.0002137,53.2158,290.7684,25.1652,208.2992,0.00040337,0.00056281,0.0,0 STARLINK-4046,1 52842U 22062N   22191.58334491  .00056281  00000-0  40337-3 0  9997,2 52842  53.2158 290.7684 0002137  25.1652 208.2992 15.73161910  1307,6728.004,91.535,351.307,348.431,0.0
52842.0,STARLINK-4046,PAYLOAD,2022-07-10 22:00:00,15.73244422,0.0002145,53.2155,289.118,24.917,297.4903,4.6869e-05,5.974e-05,0.0,0 STARLINK-4046,1 52842U 22062N   22191.91667824  .00005974  00000-0  46869-4 0  9993,2 52842  53.2155 289.1180 0002145  24.9170 297.4903 15.73244422  1300,6727.769,91.531,351.077,348.19,0.0
52842.0,STARLINK-4046,PAYLOAD,2022-07-11 06:00:00,15.73253778,0.0001992,53.2157,287.4673,28.0544,23.3339,0.00039585,0.00055433,0.0,0 STARLINK-4046,1 52842U 22062N   22192.25001157  .00055433  00000-0  39585-3 0  9993,2 52842  53.2157 287.4673 0001992  28.0544  23.3339 15.73253778  4237,6727.7419999999975,91.53,350.94699999999995,348.267,0.0
52842.0,STARLINK-4046,PAYLOAD,2022-07-11 14:00:01,15.73277759,0.0002222,53.2155,285.8198,21.8233,118.5899,-0.00029328,-0.0004172,0.0,0 STARLINK-4046,1 52842U 22062N   22192.58334491 -.00041720  00000-0 -29328-3 0  9999,2 52842  53.2155 285.8198 0002222  21.8233 118.5899 15.73277759  4280,6727.6730000000025,91.529,351.033,348.0440000000001,0.0
52842.0,STARLINK-4046,PAYLOAD,2022-07-11 22:00:00,15.7330157,0.0002174,53.2155,284.1691,20.8395,208.5785,-0.00099989,-0.00139273,0.0,0 STARLINK-4046,1 52842U 22062N   22192.91667824 -.00139273  00000-0 -99989-3 0  9996,2 52842  53.2155 284.1691 0002174  20.8395 208.5785 15.73301570  1307,6727.606,91.527,350.93300000000005,348.0080000000001,0.0
52842.0,STARLINK-4046,PAYLOAD,2022-07-12 14:00:01,15.73241174,0.0002467,53.216,280.8711,21.7529,25.608,3.5065e-05,4.311e-05,0.0,0 STARLINK-4046,1 52842U 22062N   22193.58334491  .00004311  00000-0  35065-4 0  9999,2 52842  53.2160 280.8711 0002467  21.7529  25.6080 15.73241174  4440,6727.778,91.531,351.30300000000005,347.983,0.0
52842.0,STARLINK-4046,PAYLOAD,2022-07-12 22:00:00,15.73262788,0.0002433,53.2155,279.2204,23.148000000000003,113.2087,-0.00024777,-0.00035348,0.0,0 STARLINK-4046,1 52842U 22062N   22193.91667824 -.00035348  00000-0 -24777-3 0  9998,2 52842  53.2155 279.2204 0002433  23.1480 113.2087 15.73262788  1305,6727.715999999999,91.53,351.218,347.944,0.0
52842.0,STARLINK-4046,PAYLOAD,2022-07-13 14:00:01,15.73180092,0.0002581,53.2153,275.9229,23.6743,290.5963,-0.00030755,-0.00043532,0.0,0 STARLINK-4046,1 52842U 22062N   22194.58334491 -.00043532  00000-0 -30755-3 0  9990,2 52842  53.2153 275.9229 0002581  23.6743 290.5963 15.73180092  4609,6727.9519999999975,91.534,351.55300000000005,348.08,0.0
52842.0,STARLINK-4046,PAYLOAD,2022-07-13 22:00:00,15.73166878,0.0002427,53.2153,274.2722,19.0636,24.0922,-0.00038642,-0.00054435,0.0,0 STARLINK-4046,1 52842U 22062N   22194.91667824 -.00054435  00000-0 -38642-3 0  9993,2 52842  53.2153 274.2722 0002427  19.0636  24.0922 15.73166878  1303,6727.99,91.535,351.487,348.222,0.0
52842.0,STARLINK-4046,PAYLOAD,2022-07-14 14:00:01,15.73108973,0.0002685,53.2153,270.9749,16.7782,204.0658,0.0004822,0.00067341,0.0,0 STARLINK-4046,1 52842U 22062N   22195.58334491  .00067341  00000-0  48220-3 0  9999,2 52842  53.2153 270.9749 0002685  16.7782 204.0658 15.73108973  4757,6728.155,91.538,351.826,348.213,0.0
52842.0,STARLINK-4046,PAYLOAD,2022-07-14 22:00:00,15.73169695,0.0002561,53.2149,269.3241,17.2516,292.4453,0.00014866,0.00020268,0.0,0 STARLINK-4046,1 52842U 22062N   22195.91667824  .00020268  00000-0  14866-3 0  9991,2 52842  53.2149 269.3241 0002561  17.2516 292.4453 15.73169695  1305,6727.982,91.535,351.57,348.124,0.0
